     2.100          NAVIGATION                              RINEX VERSION / TYPE
fic2rin                                 03/01/2013 00:29:53 PGM / RUN BY / DATE
                                                            END OF HEADER
22 13  2 28 18  0  0.0  .159734394401D-03  .125055521494D-11  .000000000000D+00
     .105000000000D+03  .102625000000D+03  .541201114627D-08 -.259943310535D+01
     .518001616001D-05  .623993319459D-02  .788643956184D-05  .515365771675D+04
     .410400000000D+06  .838190317154D-07  .121475184692D+01 -.186264514923D-08
     .925421772583D+00  .208343750000D+03 -.203742848673D+01 -.842892252703D-08
     .449661587353D-09  .100000000000D+01  .172900000000D+04  .000000000000D+00
     .340000000000D+01  .000000000000D+00 -.172294676304D-07  .105000000000D+03
     .403206000000D+06  .400000000000D+01
23 13  2 28 18  0  0.0  .109472777694D-03 -.363797880709D-11  .000000000000D+00
     .480000000000D+02 -.188437500000D+02  .527164815673D-08  .166543119535D+01
    -.812113285065D-06  .820997904520D-02  .266358256340D-05  .515374080849D+04
     .410400000000D+06 -.316649675369D-07  .227006275252D+01  .158324837685D-06
     .956564545279D+00  .329125000000D+03 -.291494824005D+01 -.873929259804D-08
    -.276082928534D-09  .100000000000D+01  .172900000000D+04  .000000000000D+00
     .240000000000D+01  .000000000000D+00 -.200234353542D-07  .480000000000D+02
     .403206000000D+06  .400000000000D+01
24 13  2 28 18  0  0.0 -.186078250408D-05 -.682121026330D-12  .000000000000D+00
     .820000000000D+02 -.654375000000D+02  .441161233279D-08  .918358709006D+00
    -.331550836563D-05  .739564769901D-03  .102594494820D-04  .515370366096D+04
     .410400000000D+06  .000000000000D+00 -.298690417573D+01 -.204890966415D-07
     .959543794039D+00  .177750000000D+03  .189371582532D+00 -.803497754621D-08
    -.363586573412D-09  .100000000000D+01  .172900000000D+04  .000000000000D+00
     .340000000000D+01  .000000000000D+00  .325962901115D-08  .820000000000D+02
     .403206000000D+06  .400000000000D+01
25 13  2 28 18  0  0.0  .739814713597D-04  .318323145621D-11  .000000000000D+00
     .650000000000D+02  .518125000000D+02  .419481758813D-08 -.111069704990D+01
     .263750553131D-05  .222374370787D-02  .913999974728D-05  .515358127594D+04
     .410400000000D+06  .689178705215D-07 -.193934325275D+01 -.335276126862D-07
     .971758735755D+00  .211468750000D+03  .551065590162D+00 -.795568852922D-08
     .381444460121D-09  .100000000000D+01  .172900000000D+04  .000000000000D+00
     .240000000000D+01  .000000000000D+00  .558793544769D-08  .650000000000D+02
     .403206000000D+06  .400000000000D+01
26 13  2 28 18  0  0.0 -.842115841806D-04  .142108547152D-10  .000000000000D+00
     .122000000000D+03 -.261875000000D+02  .462197823823D-08  .157825830180D+01
    -.182352960110D-05  .212323254673D-01  .379793345928D-05  .515365450668D+04
     .410400000000D+06 -.333413481712D-06  .234876827622D+01 -.359490513802D-06
     .979821638007D+00  .320968750000D+03  .122094217307D+01 -.835427656058D-08
    -.257153568621D-09  .100000000000D+01  .172900000000D+04  .000000000000D+00
     .340000000000D+01  .000000000000D+00 -.605359673500D-08  .122000000000D+03
     .403206000000D+06  .400000000000D+01
27 13  2 28 18  0  0.0 -.184637028724D-03  .147792889038D-11  .000000000000D+00
     .580000000000D+02  .613750000000D+02  .532022160858D-08 -.252804228469D+01
     .316277146339D-05  .586477213074D-02  .913627445698D-05  .515364149857D+04
     .410400000000D+06 -.670552253723D-07 -.192312946981D+01  .167638063431D-07
     .976597455798D+00  .213187500000D+03  .831359046904D+00 -.776282335275D-08
     .536093759028D-09  .100000000000D+01  .172900000000D+04  .000000000000D+00
     .240000000000D+01  .630000000000D+02 -.190921127796D-07  .580000000000D+02
     .403206000000D+06  .400000000000D+01
28 13  2 28 18  0  0.0  .236790161580D-03  .341060513165D-11  .000000000000D+00
     .740000000000D+02  .570625000000D+02  .387301846962D-08 -.270501559261D+01
     .291690230370D-05  .186564670876D-01  .914372503757D-05  .515363972855D+04
     .410400000000D+06  .253319740295D-06 -.187738151988D+01 -.223517417908D-07
     .982032051634D+00  .211812500000D+03 -.177877446448D+01 -.749602652531D-08
     .599667835715D-09  .100000000000D+01  .172900000000D+04  .000000000000D+00
     .340000000000D+01  .000000000000D+00 -.107102096081D-07  .740000000000D+02
     .403206000000D+06  .400000000000D+01
29 13  2 28 18  0  0.0  .412267167121D-03  .363797880709D-11  .000000000000D+00
     .640000000000D+02 -.345312500000D+02  .477948479901D-08 -.590966145346D+00
    -.173225998878D-05  .193940172903D-02  .420771539211D-05  .515368456841D+04
     .410400000000D+06 -.409781932831D-07 -.836753773833D+00 -.186264514923D-08
     .965299689110D+00  .301437500000D+03 -.109883789425D+01 -.837534886690D-08
    -.108933108930D-09  .100000000000D+01  .172900000000D+04  .000000000000D+00
     .240000000000D+01  .000000000000D+00 -.977888703346D-08  .640000000000D+02
     .403206000000D+06  .400000000000D+01
30 13  2 28 18  0  0.0 -.215636100620D-03  .761701812735D-11  .000000000000D+00
     .790000000000D+02  .607812500000D+02  .425196282560D-08  .279203906955D+01
     .312179327011D-05  .108388289809D-01  .101327896118D-04  .515362915993D+04
     .410400000000D+06  .670552253723D-07 -.203277508769D+01  .670552253723D-07
     .962882638304D+00  .183843750000D+03  .161231567837D+01 -.776818071876D-08
     .433589489314D-09  .100000000000D+01  .172900000000D+04  .000000000000D+00
     .965000000000D+01  .000000000000D+00 -.419095158577D-08  .790000000000D+02
     .403206000000D+06  .400000000000D+01
31 13  2 28 18  0  0.0  .304478220642D-03  .159161572810D-11  .000000000000D+00
     .680000000000D+02 -.542500000000D+02  .392052044827D-08 -.353035121330D-01
    -.294297933578D-05  .806807691697D-02  .113006681204D-04  .515354776955D+04
     .410400000000D+06  .745058059692D-08 -.295573043891D+01 -.987201929092D-07
     .981002705900D+00  .175000000000D+03 -.766511525265D+00 -.785282710177D-08
    -.353943314588D-09  .100000000000D+01  .172900000000D+04  .000000000000D+00
     .240000000000D+01  .000000000000D+00 -.130385160446D-07  .680000000000D+02
     .403206000000D+06  .400000000000D+01
32 13  2 28 18  0  0.0 -.539402011782D-03 -.318323145621D-11  .000000000000D+00
     .700000000000D+02  .103812500000D+03  .507628287613D-08  .572131759721D+00
     .537000596523D-05  .116058612475D-01  .768154859543D-05  .515374779510D+04
     .410400000000D+06  .255182385445D-06  .129644727090D+01 -.111758708954D-06
     .949553023232D+00  .227093750000D+03 -.391644806378D+00 -.851071164816D-08
     .490734726785D-09  .100000000000D+01  .172900000000D+04  .000000000000D+00
     .240000000000D+01  .000000000000D+00 -.325962901115D-08  .700000000000D+02
     .403206000000D+06  .400000000000D+01
24 13  2 28 17 59 44.0 -.186590477824D-05 -.682121026330D-12  .000000000000D+00
     .280000000000D+02 -.654375000000D+02  .441161233279D-08  .916028640384D+00
    -.331550836563D-05  .739551964216D-03  .102594494820D-04  .515370368004D+04
     .410384000000D+06  .000000000000D+00 -.298690404553D+01 -.204890966415D-07
     .959543794039D+00  .177750000000D+03  .189367852091D+00 -.803497754621D-08
    -.363586573412D-09  .100000000000D+01  .172900000000D+04  .000000000000D+00
     .240000000000D+01  .000000000000D+00  .325962901115D-08  .280000000000D+02
     .406536000000D+06  .400000000000D+01
26 13  2 28 17 59 44.0 -.842083245516D-04  .142108547152D-10  .000000000000D+00
     .250000000000D+02 -.261875000000D+02  .462197823823D-08  .157592456418D+01
    -.182352960110D-05  .212323259329D-01  .379793345928D-05  .515365451050D+04
     .410384000000D+06 -.333413481712D-06  .234876841081D+01 -.359490513802D-06
     .979821652636D+00  .320968750000D+03  .122094213357D+01 -.835427656058D-08
    -.257153568621D-09  .100000000000D+01  .172900000000D+04  .000000000000D+00
     .240000000000D+01  .000000000000D+00 -.605359673500D-08  .250000000000D+02
     .407736000000D+06  .400000000000D+01
28 13  2 28 17 59 44.0  .236787833273D-03  .341060513165D-11  .000000000000D+00
     .220000000000D+02  .570625000000D+02  .387301846962D-08 -.270734925855D+01
     .291690230370D-05  .186564642936D-01  .914372503757D-05  .515363972855D+04
     .410384000000D+06  .253319740295D-06 -.187738140139D+01 -.223517417908D-07
     .982032045782D+00  .211812500000D+03 -.177877453177D+01 -.749638368304D-08
     .600024993449D-09  .100000000000D+01  .172900000000D+04  .000000000000D+00
     .240000000000D+01  .000000000000D+00 -.107102096081D-07  .220000000000D+02
     .409956000000D+06  .400000000000D+01
24 13  2 28 19 59 44.0 -.187056139112D-05 -.682121026330D-12  .000000000000D+00
     .290000000000D+02 -.718750000000D+02  .445482841863D-08  .196559398203D+01
    -.366196036339D-05  .739195500501D-03  .105593353510D-04  .515370442200D+04
     .417584000000D+06  .335276126862D-07 -.298696196245D+01  .372529029846D-08
     .959541250025D+00  .175750000000D+03  .189964791425D+00 -.804533512050D-08
    -.353586156854D-09  .100000000000D+01  .172900000000D+04  .000000000000D+00
     .240000000000D+01  .000000000000D+00  .325962901115D-08  .290000000000D+02
     .410406000000D+06  .400000000000D+01
26 13  2 28 19 59 44.0 -.841054134071D-04  .142108547152D-10  .000000000000D+00
     .260000000000D+02 -.260000000000D+02  .450233039728D-08  .262606119874D+01
    -.162981450558D-05  .212319090497D-01  .285916030407D-05  .515365677071D+04
     .417584000000D+06  .782310962677D-07  .234871009889D+01 -.249594449997D-06
     .979821364441D+00  .330656250000D+03  .122099712467D+01 -.799461872225D-08
    -.280725979078D-09  .100000000000D+01  .172900000000D+04  .000000000000D+00
     .240000000000D+01  .000000000000D+00 -.605359673500D-08  .260000000000D+02
     .410406000000D+06  .400000000000D+01
